CCSDS_OMM_VERS = 2.0
CREATION_DATE  = 
ORIGINATOR     = 

OBJECT_NAME    = UNKNOWN
OBJECT_ID      = 
CENTER_NAME    = EARTH
REF_FRAME      = TEME
TIME_SYSTEM    = UTC
MEAN_ELEMENT_THEORY = SGP/SGP4

EPOCH          = 2025-12-12T23:32:49.057440
MEAN_MOTION    = 13.71946342
ECCENTRICITY   = .05756429
INCLINATION    = 81.9701
RA_OF_ASC_NODE = 236.5626
ARG_OF_PERICENTER = 84.0362
MEAN_ANOMALY   = 282.6059

EPHEMERIS_TYPE = 0
CLASSIFICATION_TYPE = U
NORAD_CAT_ID   = 270033
ELEMENT_SET_NO = 999
REV_AT_EPOCH   = 30206
BSTAR          = .51178831E-3
MEAN_MOTION_DOT = .1577E-4
MEAN_MOTION_DDOT = 0

CCSDS_OMM_VERS = 2.0
CREATION_DATE  = 
ORIGINATOR     = 

OBJECT_NAME    = UNKNOWN
OBJECT_ID      = 
CENTER_NAME    = EARTH
REF_FRAME      = TEME
TIME_SYSTEM    = UTC
MEAN_ELEMENT_THEORY = SGP/SGP4

EPOCH          = 2025-12-08T01:06:12.614112
MEAN_MOTION    = 13.26036148
ECCENTRICITY   = .06380109
INCLINATION    = 99.3446
RA_OF_ASC_NODE = 256.2449
ARG_OF_PERICENTER = 295.9191
MEAN_ANOMALY   = 57.7519

EPHEMERIS_TYPE = 0
CLASSIFICATION_TYPE = U
NORAD_CAT_ID   = 270034
ELEMENT_SET_NO = 999
REV_AT_EPOCH   = 7796
BSTAR          = .10243422E-1
MEAN_MOTION_DOT = .13702E-3
MEAN_MOTION_DDOT = 0

CCSDS_OMM_VERS = 2.0
CREATION_DATE  = 
ORIGINATOR     = 

OBJECT_NAME    = UNKNOWN
OBJECT_ID      = 
CENTER_NAME    = EARTH
REF_FRAME      = TEME
TIME_SYSTEM    = UTC
MEAN_ELEMENT_THEORY = SGP/SGP4

EPOCH          = 2025-12-12T04:15:18.688032
MEAN_MOTION    = 14.00135097
ECCENTRICITY   = .00919392
INCLINATION    = 82.4429
RA_OF_ASC_NODE = 313.5786
ARG_OF_PERICENTER = 314.0198
MEAN_ANOMALY   = 45.3419

EPHEMERIS_TYPE = 0
CLASSIFICATION_TYPE = U
NORAD_CAT_ID   = 270035
ELEMENT_SET_NO = 999
REV_AT_EPOCH   = 30726
BSTAR          = .33118694E-2
MEAN_MOTION_DOT = .5078E-4
MEAN_MOTION_DDOT = 0

CCSDS_OMM_VERS = 2.0
CREATION_DATE  = 
ORIGINATOR     = 

OBJECT_NAME    = UNKNOWN
OBJECT_ID      = 
CENTER_NAME    = EARTH
REF_FRAME      = TEME
TIME_SYSTEM    = UTC
MEAN_ELEMENT_THEORY = SGP/SGP4

EPOCH          = 2025-12-09T05:45:57.775392
MEAN_MOTION    = 13.75850722
ECCENTRICITY   = .01067137
INCLINATION    = 100.3763
RA_OF_ASC_NODE = 170.4928
ARG_OF_PERICENTER = 124.9353
MEAN_ANOMALY   = 236.1874

EPHEMERIS_TYPE = 0
CLASSIFICATION_TYPE = U
NORAD_CAT_ID   = 270036
ELEMENT_SET_NO = 999
REV_AT_EPOCH   = 30249
BSTAR          = .15808712E-2
MEAN_MOTION_DOT = .1545E-4
MEAN_MOTION_DDOT = 0

CCSDS_OMM_VERS = 2.0
CREATION_DATE  = 
ORIGINATOR     = 

OBJECT_NAME    = UNKNOWN
OBJECT_ID      = 
CENTER_NAME    = EARTH
REF_FRAME      = TEME
TIME_SYSTEM    = UTC
MEAN_ELEMENT_THEORY = SGP/SGP4

EPOCH          = 2025-12-11T12:32:26.552256
MEAN_MOTION    = 12.79871928
ECCENTRICITY   = .01505165
INCLINATION    = 102.8613
RA_OF_ASC_NODE = 89.0844
ARG_OF_PERICENTER = 49.1260
MEAN_ANOMALY   = 312.2755

EPHEMERIS_TYPE = 0
CLASSIFICATION_TYPE = U
NORAD_CAT_ID   = 270038
ELEMENT_SET_NO = 999
REV_AT_EPOCH   = 28024
BSTAR          = .5429107E-1
MEAN_MOTION_DOT = .12899E-3
MEAN_MOTION_DDOT = 0

CCSDS_OMM_VERS = 2.0
CREATION_DATE  = 
ORIGINATOR     = 

OBJECT_NAME    = UNKNOWN
OBJECT_ID      = 
CENTER_NAME    = EARTH
REF_FRAME      = TEME
TIME_SYSTEM    = UTC
MEAN_ELEMENT_THEORY = SGP/SGP4

EPOCH          = 2025-12-06T11:02:39.286752
MEAN_MOTION    = 14.04408544
ECCENTRICITY   = .0010896
INCLINATION    = 82.5524
RA_OF_ASC_NODE = 43.8194
ARG_OF_PERICENTER = 63.9823
MEAN_ANOMALY   = 296.2469

EPHEMERIS_TYPE = 0
CLASSIFICATION_TYPE = U
NORAD_CAT_ID   = 270039
ELEMENT_SET_NO = 999
REV_AT_EPOCH   = 30784
BSTAR          = .29002332E-2
MEAN_MOTION_DOT = .4635E-4
MEAN_MOTION_DDOT = 0

CCSDS_OMM_VERS = 2.0
CREATION_DATE  = 
ORIGINATOR     = 

OBJECT_NAME    = UNKNOWN
OBJECT_ID      = 
CENTER_NAME    = EARTH
REF_FRAME      = TEME
TIME_SYSTEM    = UTC
MEAN_ELEMENT_THEORY = SGP/SGP4

EPOCH          = 2025-12-11T09:47:02.414112
MEAN_MOTION    = 12.53353526
ECCENTRICITY   = .00267618
INCLINATION    = 101.4094
RA_OF_ASC_NODE = 25.9841
ARG_OF_PERICENTER = 225.8285
MEAN_ANOMALY   = 134.0588

EPHEMERIS_TYPE = 0
CLASSIFICATION_TYPE = U
NORAD_CAT_ID   = 270040
ELEMENT_SET_NO = 999
REV_AT_EPOCH   = 27634
BSTAR          = .25787727E-3
MEAN_MOTION_DOT = -.2E-7
MEAN_MOTION_DDOT = 0

CCSDS_OMM_VERS = 2.0
CREATION_DATE  = 
ORIGINATOR     = 

OBJECT_NAME    = UNKNOWN
OBJECT_ID      = 
CENTER_NAME    = EARTH
REF_FRAME      = TEME
TIME_SYSTEM    = UTC
MEAN_ELEMENT_THEORY = SGP/SGP4

EPOCH          = 2025-12-11T13:40:36.300576
MEAN_MOTION    = 13.96180020
ECCENTRICITY   = .0218578
INCLINATION    = 98.4937
RA_OF_ASC_NODE = 93.9661
ARG_OF_PERICENTER = 19.5474
MEAN_ANOMALY   = 341.3910

EPHEMERIS_TYPE = 0
CLASSIFICATION_TYPE = U
NORAD_CAT_ID   = 270041
ELEMENT_SET_NO = 999
REV_AT_EPOCH   = 30687
BSTAR          = .12035508E-2
MEAN_MOTION_DOT = .1983E-4
MEAN_MOTION_DDOT = 0

CCSDS_OMM_VERS = 2.0
CREATION_DATE  = 
ORIGINATOR     = 

OBJECT_NAME    = UNKNOWN
OBJECT_ID      = 
CENTER_NAME    = EARTH
REF_FRAME      = TEME
TIME_SYSTEM    = UTC
MEAN_ELEMENT_THEORY = SGP/SGP4

EPOCH          = 2025-12-09T19:20:51.772128
MEAN_MOTION    = 12.26200016
ECCENTRICITY   = .01374501
INCLINATION    = 74.0196
RA_OF_ASC_NODE = 179.8029
ARG_OF_PERICENTER = 160.4509
MEAN_ANOMALY   = 200.1872

EPHEMERIS_TYPE = 0
CLASSIFICATION_TYPE = U
NORAD_CAT_ID   = 270042
ELEMENT_SET_NO = 999
REV_AT_EPOCH   = 27028
BSTAR          = .70802053E-3
MEAN_MOTION_DOT = .67E-6
MEAN_MOTION_DDOT = 0

CCSDS_OMM_VERS = 2.0
CREATION_DATE  = 
ORIGINATOR     = 

OBJECT_NAME    = UNKNOWN
OBJECT_ID      = 
CENTER_NAME    = EARTH
REF_FRAME      = TEME
TIME_SYSTEM    = UTC
MEAN_ELEMENT_THEORY = SGP/SGP4

EPOCH          = 2025-12-12T21:11:56.898816
MEAN_MOTION    = 13.92143193
ECCENTRICITY   = .02490559
INCLINATION    = 98.9112
RA_OF_ASC_NODE = 41.8995
ARG_OF_PERICENTER = 302.7902
MEAN_ANOMALY   = 54.9487

EPHEMERIS_TYPE = 0
CLASSIFICATION_TYPE = U
NORAD_CAT_ID   = 270043
ELEMENT_SET_NO = 999
REV_AT_EPOCH   = 30555
BSTAR          = .23409521E-2
MEAN_MOTION_DOT = .3819E-4
MEAN_MOTION_DDOT = 0

CCSDS_OMM_VERS = 2.0
CREATION_DATE  = 
ORIGINATOR     = 

OBJECT_NAME    = UNKNOWN
OBJECT_ID      = 
CENTER_NAME    = EARTH
REF_FRAME      = TEME
TIME_SYSTEM    = UTC
MEAN_ELEMENT_THEORY = SGP/SGP4

EPOCH          = 2025-12-12T19:37:06.959424
MEAN_MOTION    = 13.00584926
ECCENTRICITY   = .00140477
INCLINATION    = 90.2490
RA_OF_ASC_NODE = 9.1861
ARG_OF_PERICENTER = 6.7136
MEAN_ANOMALY   = 353.4172

EPHEMERIS_TYPE = 0
CLASSIFICATION_TYPE = U
NORAD_CAT_ID   = 270044
ELEMENT_SET_NO = 999
REV_AT_EPOCH   = 28658
BSTAR          = .32166355E-2
MEAN_MOTION_DOT = .983E-5
MEAN_MOTION_DDOT = 0

CCSDS_OMM_VERS = 2.0
CREATION_DATE  = 
ORIGINATOR     = 

OBJECT_NAME    = UNKNOWN
OBJECT_ID      = 
CENTER_NAME    = EARTH
REF_FRAME      = TEME
TIME_SYSTEM    = UTC
MEAN_ELEMENT_THEORY = SGP/SGP4

EPOCH          = 2025-12-10T08:06:42.509664
MEAN_MOTION    = 12.96408818
ECCENTRICITY   = .00372614
INCLINATION    = 90.2495
RA_OF_ASC_NODE = 9.1238
ARG_OF_PERICENTER = 268.3850
MEAN_ANOMALY   = 91.3002

EPHEMERIS_TYPE = 0
CLASSIFICATION_TYPE = U
NORAD_CAT_ID   = 270045
ELEMENT_SET_NO = 999
REV_AT_EPOCH   = 28568
BSTAR          = -.2877646E-5
MEAN_MOTION_DOT = .6E-7
MEAN_MOTION_DDOT = 0

CCSDS_OMM_VERS = 2.0
CREATION_DATE  = 
ORIGINATOR     = 

OBJECT_NAME    = UNKNOWN
OBJECT_ID      = 
CENTER_NAME    = EARTH
REF_FRAME      = TEME
TIME_SYSTEM    = UTC
MEAN_ELEMENT_THEORY = SGP/SGP4

EPOCH          = 2025-12-02T22:34:10.070112
MEAN_MOTION    = 12.62571563
ECCENTRICITY   = .00575697
INCLINATION    = 73.9955
RA_OF_ASC_NODE = 59.9829
ARG_OF_PERICENTER = 127.4009
MEAN_ANOMALY   = 233.2309

EPHEMERIS_TYPE = 0
CLASSIFICATION_TYPE = U
NORAD_CAT_ID   = 270046
ELEMENT_SET_NO = 999
REV_AT_EPOCH   = 27721
BSTAR          = .18825223E-3
MEAN_MOTION_DOT = .18E-6
MEAN_MOTION_DDOT = 0

CCSDS_OMM_VERS = 2.0
CREATION_DATE  = 
ORIGINATOR     = 

OBJECT_NAME    = UNKNOWN
OBJECT_ID      = 
CENTER_NAME    = EARTH
REF_FRAME      = TEME
TIME_SYSTEM    = UTC
MEAN_ELEMENT_THEORY = SGP/SGP4

EPOCH          = 2025-12-12T18:29:37.252320
MEAN_MOTION    = 13.77757850
ECCENTRICITY   = .00343684
INCLINATION    = 82.9692
RA_OF_ASC_NODE = 275.1109
ARG_OF_PERICENTER = 20.4166
MEAN_ANOMALY   = 339.8357

EPHEMERIS_TYPE = 0
CLASSIFICATION_TYPE = U
NORAD_CAT_ID   = 270053
ELEMENT_SET_NO = 999
REV_AT_EPOCH   = 30358
BSTAR          = .67708367E-3
MEAN_MOTION_DOT = .695E-5
MEAN_MOTION_DDOT = 0

CCSDS_OMM_VERS = 2.0
CREATION_DATE  = 
ORIGINATOR     = 

OBJECT_NAME    = UNKNOWN
OBJECT_ID      = 
CENTER_NAME    = EARTH
REF_FRAME      = TEME
TIME_SYSTEM    = UTC
MEAN_ELEMENT_THEORY = SGP/SGP4

EPOCH          = 2025-12-05T18:23:17.883744
MEAN_MOTION    = 12.98522413
ECCENTRICITY   = .00292872
INCLINATION    = 90.2126
RA_OF_ASC_NODE = 343.7453
ARG_OF_PERICENTER = 163.3957
MEAN_ANOMALY   = 196.8130

EPHEMERIS_TYPE = 0
CLASSIFICATION_TYPE = U
NORAD_CAT_ID   = 270054
ELEMENT_SET_NO = 999
REV_AT_EPOCH   = 28541
BSTAR          = .33525566E-2
MEAN_MOTION_DOT = .997E-5
MEAN_MOTION_DDOT = 0

CCSDS_OMM_VERS = 2.0
CREATION_DATE  = 
ORIGINATOR     = 

OBJECT_NAME    = UNKNOWN
OBJECT_ID      = 
CENTER_NAME    = EARTH
REF_FRAME      = TEME
TIME_SYSTEM    = UTC
MEAN_ELEMENT_THEORY = SGP/SGP4

EPOCH          = 2025-12-03T19:29:17.832480
MEAN_MOTION    = 12.99258073
ECCENTRICITY   = .00310686
INCLINATION    = 90.2446
RA_OF_ASC_NODE = 0.6562
ARG_OF_PERICENTER = 152.6362
MEAN_ANOMALY   = 207.6404

EPHEMERIS_TYPE = 0
CLASSIFICATION_TYPE = U
NORAD_CAT_ID   = 270055
ELEMENT_SET_NO = 999
REV_AT_EPOCH   = 28544
BSTAR          = .20274661E-2
MEAN_MOTION_DOT = .612E-5
MEAN_MOTION_DDOT = 0

